COSMOS 2426 (717)       
1 29671U 06062B   20045.60625949  .00000031  00000-0  10000-3 0  9999
2 29671  65.0147 272.0984 0019651 170.3113 169.8213  2.12962381102254
COSMOS 2433 (720)       
1 32275U 07052A   20045.66608453 -.00000029  00000-0  10000-3 0  9998
2 32275  65.9421  33.0442 0005425 267.0680 195.6763  2.13104443 95776
COSMOS 2432 (719)       
1 32276U 07052B   20045.64750566 -.00000029  00000-0  10000-3 0  9990
2 32276  65.9554  33.1316 0012466 320.0001  78.9457  2.13103742 95779
COSMOS 2434 (721)       
1 32393U 07065A   20045.61159971  .00000033  00000-0  00000-0 0  9994
2 32393  64.6210 270.6696 0004501  78.5033 229.8712  2.13103090 94477
COSMOS 2436 (723)       
1 32395U 07065C   20045.47601461  .00000033  00000-0  10000-3 0  9990
2 32395  64.6274 270.7227 0015294   5.9370 334.6962  2.13102994 94406
COSMOS 2456 (730)       
1 36111U 09070A   20045.79378462  .00000004  00000-0  00000+0 0  9998
2 36111  64.2174 150.3266 0003192 327.1185 294.4111  2.13102836 79142
COSMOS 2457 (733)       
1 36112U 09070B   20045.66201759  .00000005  00000-0  00000+0 0  9990
2 36112  64.1988 150.2259 0005957 158.5961 125.7161  2.13101471 79140
COSMOS 2459 (731)       
1 36400U 10007A   20045.54440117 -.00000030  00000-0  10000-3 0  9996
2 36400  65.8457  32.0347 0026773 344.4715 239.9032  2.13105230 77494
COSMOS 2461 (735)       
1 36401U 10007B   20046.31765162 -.00000031  00000-0  10000-3 0  9994
2 36401  65.8397  31.9803 0005043  41.2552 325.8277  2.13102081 77511
COSMOS 2460 (732)       
1 36402U 10007C   20045.61190229 -.00000030  00000-0  10000-3 0  9992
2 36402  65.8288  31.9637 0002723 280.6840 304.3522  2.13101490 77492
COSMOS 2464 (736)       
1 37139U 10041C   20045.80758331  .00000035  00000-0  00000+0 0  9992
2 37139  64.2210 270.1639 0027732  13.0586 310.1904  2.13100765 73566
COSMOS 2474 (742)       
1 37829U 11055A   20046.55112015 -.00000007  00000-0  00000+0 0  9990
2 37829  64.5375 151.2727 0008602 242.5652  95.2895  2.13101919 65150
COSMOS 2476 (744)       
1 37867U 11064A   20045.93588093  .00000003  00000-0  00000+0 0  9991
2 37867  64.5180 151.3402 0018619 235.7850  36.2736  2.13101933 64491
COSMOS 2477 (745)       
1 37868U 11064B   20046.24388681 -.00000002  00000-0  00000+0 0  9998
2 37868  64.5259 151.3851 0016370 236.9899  89.9271  2.13101766 64454
COSMOS 2475 (743)       
1 37869U 11064C   20045.55503964  .00000009  00000-0  00000-0 0  9992
2 37869  64.5325 151.4087 0020128 260.7109 215.0427  2.13101906 64457
COSMOS 2485 (747)       
1 39155U 13019A   20045.48318078  .00000010  00000-0  00000+0 0  9997
2 39155  64.6856 151.5974 0019193 231.4263  97.9666  2.13101892 52957
COSMOS 2492 (754)       
1 39620U 14012A   20045.80848662 -.00000031  00000-0  10000-3 0  9990
2 39620  65.7193  31.7580 0015780 318.6115 295.4458  2.13103399 45910
COSMOS 2500 (755)       
1 40001U 14032A   20045.65928358 -.00000031  00000-0  00000-0 0  9997
2 40001  65.6610  31.6861 0007439 227.8540 132.5566  2.13102649 44135
COSMOS 2501 (702K)      
1 40315U 14075A   20045.87838480  .00000032  00000-0  00000+0 0  9991
2 40315  63.9378 271.1546 0014929 206.9075 117.5508  2.13098545 40537
COSMOS 2514 (751)       
1 41330U 16008A   20046.21186278 -.00000032  00000-0  00000+0 0  9998
2 41330  65.4631  31.5713 0011219 228.4007  18.1211  2.13103061 31303
COSMOS 2516 (753)       
1 41554U 16032A   20045.80311572  .00000032  00000-0  00000+0 0  9993
2 41554  64.1597 271.1928 0010687 218.1096 325.5204  2.13101845 28907
COSMOS 2522 (752)       
1 42939U 17055A   20046.39932285  .00000035  00000-0  00000+0 0  9995
2 42939  64.3922 271.3183 0005689 256.3021 251.2665  2.13102058 18678
COSMOS 2527 (756)       
1 43508U 18053A   20046.06244751  .00000001  00000-0  00000+0 0  9998
2 43508  64.8501 151.4001 0006783 225.0062  55.7521  2.13102617 12954
COSMOS 2529 (757)       
1 43687U 18086A   20045.57065752  .00000032  00000-0  00000-0 0  9994
2 43687  64.6107 271.4327 0008810 282.1703 265.3069  2.13102075  9966
COSMOS 2534 (758)       
1 44299U 19030A   20045.44240534  .00000032  00000-0  00000+0 0  9992
2 44299  64.6757 271.2390 0012480 298.5477 285.6396  2.13101966  5605
